BEIDOU-2 IGSO-1 (C06)   
1 36828U 10036A   25087.92097250 -.00000107  00000+0  00000+0 0  9990
2 36828  54.2665 166.9908 0046170 211.7421 242.8611  1.00248251 53760
BEIDOU-2 G4 (C04)       
1 37210U 10057A   25092.62254287 -.00000121  00000+0  00000+0 0  9993
2 37210   2.5540  70.4362 0006466 206.8121 298.0495  1.00270589 52876
BEIDOU-2 IGSO-2 (C07)   
1 37256U 10068A   25091.93477961 -.00000195  00000+0  00000+0 0  9995
2 37256  48.3463 277.2776 0039802 210.4330 146.4905  1.00259214 52365
BEIDOU-2 IGSO-3 (C08)   
1 37384U 11013A   25091.64321691 -.00000192  00000+0  00000+0 0  9991
2 37384  61.7842  44.3370 0029857 182.5239 302.9276  1.00284923 51225
BEIDOU-2 IGSO-4 (C09)   
1 37763U 11038A   25082.70190369 -.00000060  00000+0  00000+0 0  9996
2 37763  54.5715 169.7029 0137042 229.6463 126.0160  1.00250470 50121
BEIDOU-2 IGSO-5 (C10)   
1 37948U 11073A   25092.48555604 -.00000151  00000+0  00000+0 0  9994
2 37948  48.4822 276.9723 0101767 219.0957 325.6056  1.00265326 48714
BEIDOU-2 G5 (C05)       
1 38091U 12008A   25092.55002124  .00000049  00000+0  00000+0 0  9990
2 38091   2.4759  71.2398 0012395 257.6554 118.9914  1.00268121 47953
BEIDOU-2 M3 (C11)       
1 38250U 12018A   25092.34913198 -.00000065  00000+0  00000+0 0  9996
2 38250  56.1250 319.6891 0021099 273.1117  86.6864  1.86233580 87738
BEIDOU-2 M4 (C12)       
1 38251U 12018B   25091.20673682 -.00000060  00000+0  00000+0 0  9997
2 38251  56.0301 318.9769 0012147 279.3084  80.5972  1.86232000 88062
BEIDOU-2 M6 (C14)       
1 38775U 12050B   25091.45359590 -.00000003  00000+0  00000+0 0  9997
2 38775  56.1567  77.5439 0014543 337.4824  22.4424  1.86230887 85087
BEIDOU-2 G6 (C02)       
1 38953U 12059A   25092.48364468 -.00000183  00000+0  00000+0 0  9997
2 38953   3.3003  78.0204 0010355 304.4457  66.7363  1.00270201 45497
BEIDOU-3S IGSO-1S (C31) 
1 40549U 15019A   25092.05656404 -.00000154  00000+0  00000+0 0  9995
2 40549  50.0285 300.7546 0037485 191.2380 171.0305  1.00293666 36650
BEIDOU-3S M2S (C58)     
1 40748U 15037A   25091.94597693 -.00000062  00000+0  00000+0 0  9995
2 40748  55.2536 317.1910 0008351 268.5427  91.3994  1.86229051 65903
BEIDOU-3S M1S (C57)     
1 40749U 15037B   25090.06231100 -.00000053  00000+0  00000+0 0  9996
2 40749  55.2511 317.2483 0004367  17.1886 342.8720  1.86253652 65874
BEIDOU-2 IGSO-6 (C13)   
1 41434U 16021A   25088.84366433 -.00000154  00000+0  00000+0 0  9995
2 41434  59.6026  42.4724 0052825 230.2676 312.7751  1.00259023 33012
BEIDOU-2 G7 (C03)       
1 41586U 16037A   25092.48885749 -.00000362  00000+0  00000+0 0  9992
2 41586   1.5804  67.8514 0010304 335.5488  74.1967  1.00270535  2479
BEIDOU-3 M1 (C19)       
1 43001U 17069A   25092.29324278 -.00000004  00000+0  00000+0 0  9999
2 43001  56.3070  77.6493 0012551 307.8053  52.0691  1.86231056 50399
BEIDOU-3 M2 (C20)       
1 43002U 17069B   25091.69408883 -.00000003  00000+0  00000+0 0  9997
2 43002  56.3056  77.7057 0010172 326.7222  33.2023  1.86230786 50373
BEIDOU-3 M7 (C27)       
1 43107U 18003A   25091.97754573 -.00000064  00000+0  00000+0 0  9990
2 43107  54.7115 317.6538 0004904  68.2354 291.8544  1.86232337 49133
BEIDOU-3 M8 (C28)       
1 43108U 18003B   25091.92035113 -.00000064  00000+0  00000+0 0  9998
2 43108  54.7046 317.6398 0002772 283.8757  76.1312  1.86230808 49143
BEIDOU-3 M4 (C22)       
1 43207U 18018A   25091.28750207 -.00000002  00000+0  00000+0 0  9993
2 43207  56.2648  77.7620 0007368 346.6582  13.3116  1.86230949 48511
BEIDOU-3 M3 (C21)       
1 43208U 18018B   25092.42793255 -.00000003  00000+0  00000+0 0  9992
2 43208  56.2654  77.7282 0010220 317.8159  42.0936  1.86231004 48538
BEIDOU-3 M9 (C29)       
1 43245U 18029A   25092.10969064 -.00000060  00000+0  00000+0 0  9996
2 43245  54.5859 315.3280 0000743  18.4546 341.5832  1.86232394 47689
BEIDOU-3 M10 (C30)      
1 43246U 18029B   25092.04090568 -.00000060  00000+0  00000+0 0  9994
2 43246  54.5837 315.3581 0004924  20.6388 339.4164  1.86228906 47660
BEIDOU-2 IGSO-7 (C16)   
1 43539U 18057A   25092.43114382 -.00000125  00000+0  00000+0 0  9996
2 43539  55.1568 166.8793 0087173 235.5888  56.9098  1.00279851 24704
BEIDOU-3 M5 (C23)       
1 43581U 18062A   25090.65546232  .00000024  00000+0  00000+0 0  9991
2 43581  54.1047 197.3502 0002747 285.3538  74.6249  1.86228449 45392
BEIDOU-3 M6 (C24)       
1 43582U 18062B   25089.98289909  .00000025  00000+0  00000+0 0  9992
2 43582  54.1045 197.3624 0005107  33.9833 326.0550  1.86229186 45381
BEIDOU-3 M12 (C26)      
1 43602U 18067A   25091.52888564  .00000019  00000+0  00000+0 0  9998
2 43602  54.1968 196.0178 0007611  32.5008 327.5609  1.86227753 44893
BEIDOU-3 M11 (C25)      
1 43603U 18067B   25091.66271893  .00000018  00000+0  00000+0 0  9994
2 43603  54.1941 195.9776 0004214  23.5006 336.5338  1.86227220 44923
BEIDOU-3 M13 (C32)      
1 43622U 18072A   25091.08516479 -.00000002  00000+0  00000+0 0  9993
2 43622  56.2369  77.2920 0009050 306.2049  53.7007  1.86231141 44428
BEIDOU-3 M14 (C33)      
1 43623U 18072B   25091.48759936 -.00000004  00000+0  00000+0 0  9997
2 43623  56.2390  77.2723 0006760 326.8387  33.1073  1.86231138 44423
BEIDOU-3 M16 (C35)      
1 43647U 18078A   25092.18519085 -.00000061  00000+0  00000+0 0  9999
2 43647  54.4825 315.4002 0008171  26.0062 334.0698  1.86232180 43946
BEIDOU-3 M15 (C34)      
1 43648U 18078B   25090.70359280 -.00000056  00000+0  00000+0 0  9999
2 43648  54.4795 315.4538 0005185  34.9274 325.1471  1.86232083 43933
BEIDOU-3 G1 (C59)       
1 43683U 18085A   25092.58013486 -.00000286  00000+0  00000+0 0  9994
2 43683   2.9157 100.0469 0002875 355.7530  84.2660  1.00271337 23645
BEIDOU-3 M17 (C36)      
1 43706U 18093A   25092.46873884  .00000009  00000+0  00000+0 0  9994
2 43706  54.1877 197.2483 0007838 286.9462  72.9814  1.86228209 43333
BEIDOU-3 M18 (C37)      
1 43707U 18093B   25091.25783388  .00000021  00000+0  00000+0 0  9994
2 43707  54.1887 197.2812 0006171 323.4628  36.5067  1.86229611 43302
BEIDOU-3 IGSO-1 (C38)   
1 44204U 19023A   25092.58726300 -.00000223  00000+0  00000+0 0  9994
2 44204  58.0734  42.2018 0021433 227.7109 251.8922  1.00267518  2798
BEIDOU-2 G8 (C01)       
1 44231U 19027A   25092.53040481 -.00000256  00000+0  00000+0 0  9998
2 44231   1.5004  74.7049 0005539 252.9032 198.9625  1.00269155 21666
BEIDOU-3 IGSO-2 (C39)   
1 44337U 19035A   25092.42875957 -.00000126  00000+0  00000+0 0  9992
2 44337  55.1989 162.7319 0035536 207.7639  92.3532  1.00294576 21242
BEIDOU-3 M24 (C46)      
1 44542U 19061A   25091.86539973  .00000016  00000+0  00000+0 0  9998
2 44542  54.4153 197.6125 0007661   6.9510 353.0719  1.86228899 37578
BEIDOU-3 M23 (C45)      
1 44543U 19061B   25092.42228156  .00000010  00000+0  00000+0 0  9994
2 44543  54.4140 197.5622 0004438 354.6529 291.4192  1.86229057 37586
BEIDOU-3 IGSO-3 (C40)   
1 44709U 19073A   25091.93077387 -.00000177  00000+0  00000+0 0  9999
2 44709  55.5568 285.6480 0042523 181.6599 178.2875  1.00268647 20035
BEIDOU-3 M22 (C44)      
1 44793U 19078A   25089.56079525 -.00000050  00000+0  00000+0 0  9999
2 44793  54.3317 315.3887 0007164  32.0878 328.0014  1.86231924 36398
BEIDOU-3 M21 (C43)      
1 44794U 19078B   25089.69245694 -.00000050  00000+0  00000+0 0  9996
2 44794  54.3051 315.3540 0005172  28.3291 331.7438  1.86227603 36394
BEIDOU-3 M19 (C41)      
1 44864U 19090A   25090.62693687  .00000000  00000+0  00000+0 0  9996
2 44864  56.1706  77.4622 0020081 288.1699 171.5517  1.86231335 35990
BEIDOU-3 M20 (C42)      
1 44865U 19090B   25091.52681838 -.00000004  00000+0  00000+0 0  9997
2 44865  56.1730  77.4660 0017799 300.0814 132.6406  1.86231250 35996
BEIDOU-3 G2 (C60)       
1 45344U 20017A   25092.58219255 -.00000149  00000+0  00000+0 0  9998
2 45344   2.7445  38.7314 0002886 321.4589 120.5985  1.00271728 18845
BEIDOU-3 G3 (C61)       
1 45807U 20040A   25092.48885749 -.00000362  00000+0  00000+0 0  9991
2 45807   1.3847  62.0034 0002809 315.7073  99.8936  1.00271959 17656
BEIDOU-3 G4 (C62)       
1 56564U 23066A   25092.62160331 -.00000122  00000+0  00000+0 0  9997
2 56564   1.4071 290.8152 0002102 207.6332  76.4852  1.00270082  6970
BEIDOU-3 M28 (C50)      
1 58654U 23207A   25091.38388753 -.00000006  00000+0  00000+0 0  9999
2 58654  55.3588  77.2532 0004955 300.9187  59.0217  1.86231937  8610
BEIDOU-3 M26 (C48)      
1 58655U 23207B   25092.25747462 -.00000007  00000+0  00000+0 0  9994
2 58655  55.3617  77.2095 0005521 286.2970  73.6304  1.86231461  8615
BEIDOU-3 M25 (C47)      
1 61186U 24168B   25092.34905774 -.00000064  00000+0  00000+0 0  9999
2 61186  54.8562 317.5155 0004051 308.7083 230.7837  1.86229842  3577
BEIDOU-3 M27 (C49)      
1 61187U 24168C   25092.14628089 -.00000064  00000+0  00000+0 0  9999
2 61187  54.8519 317.5072 0002688  16.9254 161.4777  1.86229989  1045
